{"type": "FeatureCollection", "features": [ {"type": "Feature", "properties": {"norad_id": 37216, "name": "COSMO-SKYMED 4", "group": "resource", "lat": 32.63521219999956, "lon": -4.45719260464239, "alt_km": 620.2556072540738, "timestamp": "2025-12-15T04:01:20.099544+00:00", "meta": {"OBJECT_NAME": "COSMO-SKYMED 4", "OBJECT_ID": "2010-060A", "EPOCH": "2025-12-14T07:55:06.854016", "MEAN_MOTION": 14.82147242, "ECCENTRICITY": 0.00013846, "INCLINATION": 97.8808, "RA_OF_ASC_NODE": 169.6291, "ARG_OF_PERICENTER": 82.1355, "MEAN_ANOMALY": 278.0016, "EPHEMERIS_TYPE": 0, "CLASSIFICATION_TYPE": "U", "NORAD_CAT_ID": 37216, "ELEMENT_SET_NO": 999, "REV_AT_EPOCH": 81718, "BSTAR": 0.00012735299, "MEAN_MOTION_DOT": 9.62e-06, "MEAN_MOTION_DDOT": 0}, "tle": {"line1": "1 37216U 10060A   25348.32994044  .00000962  00000+0  12735-3 0  9990", "line2": "2 37216  97.8808 169.6291 0001384  82.1355 278.0016 14.82147242817189"}}, "geometry": {"type": "Point", "coordinates": [-4.45719260464239, 32.63521219999956]}}, {"type": "Feature", "properties": {"norad_id": 37387, "name": "RESOURCESAT-2", "group": "resource", "lat": -55.64370048849286, "lon": 65.78690415483862, "alt_km": 827.1734848890983, "timestamp": "2025-12-15T04:01:20.099555+00:00", "meta": {"OBJECT_NAME": "RESOURCESAT-2", "OBJECT_ID": "2011-015A", "EPOCH": "2025-12-14T08:01:04.341792", "MEAN_MOTION": 14.21598027, "ECCENTRICITY": 0.00063621, "INCLINATION": 98.7877, "RA_OF_ASC_NODE": 51.8788, "ARG_OF_PERICENTER": 38.4855, "MEAN_ANOMALY": 321.6775, "EPHEMERIS_TYPE": 0, "CLASSIFICATION_TYPE": "U", "NORAD_CAT_ID": 37387, "ELEMENT_SET_NO": 999, "REV_AT_EPOCH": 75991, "BSTAR": 0.00011477362, "MEAN_MOTION_DOT": 2.07e-06, "MEAN_MOTION_DDOT": 0}, "tle": {"line1": "1 37387U 11015A   25348.33407803  .00000207  00000+0  11477-3 0  9997", "line2": "2 37387  98.7877  51.8788 0006362  38.4855 321.6775 14.21598027759914"}}, "geometry": {"type": "Point", "coordinates": [65.78690415483862, -55.64370048849286]}}, {"type": "Feature", "properties": {"norad_id": 37781, "name": "HAIYANG-2A", "group": "resource", "lat": -21.641090847993024, "lon": -6.191978720988208, "alt_km": 973.4393574268879, "timestamp": "2025-12-15T04:01:20.099565+00:00", "meta": {"OBJECT_NAME": "HAIYANG-2A", "OBJECT_ID": "2011-043A", "EPOCH": "2025-12-14T07:13:48.484704", "MEAN_MOTION": 13.78834804, "ECCENTRICITY": 0.0001647, "INCLINATION": 99.3383, "RA_OF_ASC_NODE": 349.2119, "ARG_OF_PERICENTER": 81.2622, "MEAN_ANOMALY": 278.8716, "EPHEMERIS_TYPE": 0, "CLASSIFICATION_TYPE": "U", "NORAD_CAT_ID": 37781, "ELEMENT_SET_NO": 999, "REV_AT_EPOCH": 72120, "BSTAR": -2.6728883e-05, "MEAN_MOTION_DOT": -7.1e-07, "MEAN_MOTION_DDOT": 0}, "tle": {"line1": "1 37781U 11043A   25348.30125561 -.00000071  00000+0 -26729-4 0  9999", "line2": "2 37781  99.3383 349.2119 0001647  81.2622 278.8716 13.78834804721208"}}, "geometry": {"type": "Point", "coordinates": [-6.191978720988208, -21.641090847993024]}}, {"type": "Feature", "properties": {"norad_id": 37791, "name": "RASAT", "group": "resource", "lat": 27.22111776873026, "lon": -97.42896232019733, "alt_km": 667.9041886249179, "timestamp": "2025-12-15T04:01:20.099575+00:00", "meta": {"OBJECT_NAME": "RASAT", "OBJECT_ID": "2011-044D", "EPOCH": "2025-12-14T08:00:58.718880", "MEAN_MOTION": 14.67914232, "ECCENTRICITY": 0.00218356, "INCLINATION": 98.0644, "RA_OF_ASC_NODE": 77.5676, "ARG_OF_PERICENTER": 60.2363, "MEAN_ANOMALY": 9.4849, "EPHEMERIS_TYPE": 0, "CLASSIFICATION_TYPE": "U", "NORAD_CAT_ID": 37791, "ELEMENT_SET_NO": 999, "REV_AT_EPOCH": 76606, "BSTAR": 0.00020481036, "MEAN_MOTION_DOT": 1.127e-05, "MEAN_MOTION_DDOT": 0}, "tle": {"line1": "1 37791U 11044D   25348.33401295  .00001127  00000+0  20481-3 0  9994", "line2": "2 37791  98.0644  77.5676 0021835  60.2363   9.4849 14.67914232766065"}}, "geometry": {"type": "Point", "coordinates": [-97.42896232019733, 27.22111776873026]}}, {"type": "Feature", "properties": {"norad_id": 37841, "name": "SRMSAT", "group": "resource", "lat": -6.090650789413944, "lon": -69.65370590961685, "alt_km": 859.3650959139723, "timestamp": "2025-12-15T04:01:20.099586+00:00", "meta": {"OBJECT_NAME": "SRMSAT", "OBJECT_ID": "2011-058D", "EPOCH": "2025-12-14T08:35:27.687840", "MEAN_MOTION": 14.11512094, "ECCENTRICITY": 0.00117951, "INCLINATION": 19.9714, "RA_OF_ASC_NODE": 98.1565, "ARG_OF_PERICENTER": 331.3293, "MEAN_ANOMALY": 63.811, "EPHEMERIS_TYPE": 0, "CLASSIFICATION_TYPE": "U", "NORAD_CAT_ID": 37841, "ELEMENT_SET_NO": 999, "REV_AT_EPOCH": 73167, "BSTAR": 0.00011648684, "MEAN_MOTION_DOT": 4.79e-06, "MEAN_MOTION_DDOT": 0}, "tle": {"line1": "1 37841U 11058D   25348.35795935  .00000479  00000+0  11649-3 0  9999", "line2": "2 37841  19.9714  98.1565 0011795 331.3293  63.8110 14.11512094731678"}}, "geometry": {"type": "Point", "coordinates": [-69.65370590961685, -6.090650789413944]}}, {"type": "Feature", "properties": {"norad_id": 38012, "name": "PLEIADES 1A", "group": "resource", "lat": -45.185846972652115, "lon": -126.42812305709771, "alt_km": 705.3472418669317, "timestamp": "2025-12-15T04:01:20.099596+00:00", "meta": {"OBJECT_NAME": "PLEIADES 1A", "OBJECT_ID": "2011-076F", "EPOCH": "2025-12-14T09:11:19.082400", "MEAN_MOTION": 14.58564201, "ECCENTRICITY": 0.00012727, "INCLINATION": 98.182, "RA_OF_ASC_NODE": 61.1258, "ARG_OF_PERICENTER": 74.3539, "MEAN_ANOMALY": 353.2678, "EPHEMERIS_TYPE": 0, "CLASSIFICATION_TYPE": "U", "NORAD_CAT_ID": 38012, "ELEMENT_SET_NO": 999, "REV_AT_EPOCH": 74505, "BSTAR": 0.00015321048, "MEAN_MOTION_DOT": 6.67e-06, "MEAN_MOTION_DDOT": 0}, "tle": {"line1": "1 38012U 11076F   25348.38285975  .00000667  00000+0  15321-3 0  9991", "line2": "2 38012  98.1820  61.1258 0001272  74.3539 353.2678 14.58564201745051"}}, "geometry": {"type": "Point", "coordinates": [-126.42812305709771, -45.185846972652115]}}, {"type": "Feature", "properties": {"norad_id": 38038, "name": "ZIYUAN 1-02C (ZY 1-02C)", "group": "resource", "lat": -45.28502864113034, "lon": 63.75348633124085, "alt_km": 776.9538097898521, "timestamp": "2025-12-15T04:01:20.099607+00:00", "meta": {"OBJECT_NAME": "ZIYUAN 1-02C (ZY 1-02C)", "OBJECT_ID": "2011-079A", "EPOCH": "2025-12-14T08:49:57.409248", "MEAN_MOTION": 14.3801514, "ECCENTRICITY": 0.00072607, "INCLINATION": 98.433, "RA_OF_ASC_NODE": 54.3514, "ARG_OF_PERICENTER": 134.0821, "MEAN_ANOMALY": 3.2291, "EPHEMERIS_TYPE": 0, "CLASSIFICATION_TYPE": "U", "NORAD_CAT_ID": 38038, "ELEMENT_SET_NO": 999, "REV_AT_EPOCH": 73264, "BSTAR": 0.00026807305, "MEAN_MOTION_DOT": 7.68e-06, "MEAN_MOTION_DDOT": 0}, "tle": {"line1": "1 38038U 11079A   25348.36802557  .00000768  00000+0  26807-3 0  9994", "line2": "2 38038  98.4330  54.3514 0007260 134.0821   3.2291 14.38015140732643"}}, "geometry": {"type": "Point", "coordinates": [63.75348633124085, -45.28502864113034]}}, {"type": "Feature", "properties": {"norad_id": 38046, "name": "ZIYUAN 3-1 (ZY 3-1)", "group": "resource", "lat": 9.11878682929419, "lon": -123.19839297922884, "alt_km": 364.7986578633272, "timestamp": "2025-12-15T04:01:20.099618+00:00", "meta": {"OBJECT_NAME": "ZIYUAN 3-1 (ZY 3-1)", "OBJECT_ID": "2012-001A", "EPOCH": "2025-12-14T07:23:50.843904", "MEAN_MOTION": 15.68861051, "ECCENTRICITY": 0.00016797, "INCLINATION": 97.1758, "RA_OF_ASC_NODE": 54.7627, "ARG_OF_PERICENTER": 342.53, "MEAN_ANOMALY": 17.5904, "EPHEMERIS_TYPE": 0, "CLASSIFICATION_TYPE": "U", "NORAD_CAT_ID": 38046, "ELEMENT_SET_NO": 999, "REV_AT_EPOCH": 77521, "BSTAR": 0.00068088569, "MEAN_MOTION_DOT": 0.00078442, "MEAN_MOTION_DDOT": 0}, "tle": {"line1": "1 38046U 12001A   25348.30822736  .00078442  00000+0  68089-3 0  9996", "line2": "2 38046  97.1758  54.7627 0001679 342.5300  17.5904 15.68861051775210"}}, "geometry": {"type": "Point", "coordinates": [-123.19839297922884, 9.11878682929419]}}, {"type": "Feature", "properties": {"norad_id": 38338, "name": "ARIRANG-3 (KOMPSAT-3)", "group": "resource", "lat": 28.922662980728248, "lon": 128.4201330278415, "alt_km": 689.98600685778, "timestamp": "2025-12-15T04:01:20.099628+00:00", "meta": {"OBJECT_NAME": "ARIRANG-3 (KOMPSAT-3)", "OBJECT_ID": "2012-025B", "EPOCH": "2025-12-14T07:37:14.485728", "MEAN_MOTION": 14.6171555, "ECCENTRICITY": 0.00052547, "INCLINATION": 98.3324, "RA_OF_ASC_NODE": 302.9188, "ARG_OF_PERICENTER": 333.6145, "MEAN_ANOMALY": 26.4787, "EPHEMERIS_TYPE": 0, "CLASSIFICATION_TYPE": "U", "NORAD_CAT_ID": 38338, "ELEMENT_SET_NO": 999, "REV_AT_EPOCH": 72433, "BSTAR": 0.00017760425, "MEAN_MOTION_DOT": 8.36e-06, "MEAN_MOTION_DDOT": 0}, "tle": {"line1": "1 38338U 12025B   25348.31752877  .00000836  00000+0  17760-3 0  9997", "line2": "2 38338  98.3324 302.9188 0005254 333.6145  26.4787 14.61715550724336"}}, "geometry": {"type": "Point", "coordinates": [128.4201330278415, 28.922662980728248]}}, {"type": "Feature", "properties": {"norad_id": 38709, "name": "EXACTVIEW-1 (ADS-1B)", "group": "resource", "lat": -7.29228925304644, "lon": -83.54898097145193, "alt_km": 819.760042951385, "timestamp": "2025-12-15T04:01:20.099639+00:00", "meta": {"OBJECT_NAME": "EXACTVIEW-1 (ADS-1B)", "OBJECT_ID": "2012-039C", "EPOCH": "2025-12-14T06:55:21.665280", "MEAN_MOTION": 14.24908824, "ECCENTRICITY": 0.00105955, "INCLINATION": 98.9636, "RA_OF_ASC_NODE": 96.711, "ARG_OF_PERICENTER": 349.6477, "MEAN_ANOMALY": 10.4482, "EPHEMERIS_TYPE": 0, "CLASSIFICATION_TYPE": "U", "NORAD_CAT_ID": 38709, "ELEMENT_SET_NO": 999, "REV_AT_EPOCH": 69637, "BSTAR": 0.00010818834, "MEAN_MOTION_DOT": 2.06e-06, "MEAN_MOTION_DDOT": 0}, "tle": {"line1": "1 38709U 12039C   25348.28844520  .00000206  00000+0  10819-3 0  9996", "line2": "2 38709  98.9636  96.7110 0010595 349.6477  10.4482 14.24908824696376"}}, "geometry": {"type": "Point", "coordinates": [-83.54898097145193, -7.29228925304644]}}]}